[{"OBJECT_NAME":"SDA_1667","OBJECT_ID":"2025-230D","EPOCH":"2026-03-09T17:13:30.645984","MEAN_MOTION":13.84901461,"ECCENTRICITY":0.00041039,"INCLINATION":81.2986,"RA_OF_ASC_NODE":303.9273,"ARG_OF_PERICENTER":81.7759,"MEAN_ANOMALY":278.3863,"EPHEMERIS_TYPE":0,"CLASSIFICATION_TYPE":"U","NORAD_CAT_ID":65977,"ELEMENT_SET_NO":999,"REV_AT_EPOCH":2004,"BSTAR":0.00023812804,"MEAN_MOTION_DOT":2.81e-6,"MEAN_MOTION_DDOT":0},{"OBJECT_NAME":"FENGYUN 1C DEB","OBJECT_ID":"1999-025AJR","EPOCH":"2026-03-09T01:24:58.868352","MEAN_MOTION":13.31238196,"ECCENTRICITY":0.0409107,"INCLINATION":100.0526,"RA_OF_ASC_NODE":114.6892,"ARG_OF_PERICENTER":21.4872,"MEAN_ANOMALY":7.8987,"EPHEMERIS_TYPE":0,"CLASSIFICATION_TYPE":"U","NORAD_CAT_ID":30527,"ELEMENT_SET_NO":999,"REV_AT_EPOCH":92505,"BSTAR":0.0013747353,"MEAN_MOTION_DOT":9.99e-6,"MEAN_MOTION_DDOT":0}]
